NORAD_CAT_ID,OBJECT_NAME,OBJECT_TYPE,EPOCH,MEAN_MOTION,ECCENTRICITY,INCLINATION,RA_OF_ASC_NODE,ARG_OF_PERICENTER,MEAN_ANOMALY,BSTAR,MEAN_MOTION_DOT,MEAN_MOTION_DDOT,TLE_LINE0,TLE_LINE1,TLE_LINE2,SEMIMAJOR_AXIS,PERIOD,APOGEE,PERIGEE,DECAYED
51877.0,STARLINK-3556,PAYLOAD,2023-09-03 12:03:08,15.08838336,0.0001712,53.2176,161.0237,84.0024,276.1163,4.1529e-05,3.73e-06,0.0,0 STARLINK-3556,1 51877U 22022AB  23246.50217712  .00000373  00000-0  41529-4 0  9996,2 51877  53.2176 161.0237 0001712  84.0024 276.1163 15.08838336 84635,6917.885,95.438,540.935,538.566,0.0
51877.0,STARLINK-3556,PAYLOAD,2023-09-04 00:46:12,15.08857072,0.0001635,53.2178,158.6437,85.5399,274.578,-0.00026715,-4.539e-05,0.0,0 STARLINK-3556,1 51877U 22022AB  23247.03209196 -.00004539  00000-0 -26715-3 0  9991,2 51877  53.2178 158.6437 0001635  85.5399 274.5780 15.08857072 84710,6917.828,95.436,540.824,538.562,0.0
51877.0,STARLINK-3556,PAYLOAD,2023-09-04 03:56:59,15.08838664,0.0001585,53.2182,158.0488,94.6898,265.4276,-1.4267e-05,-5.15e-06,0.0,0 STARLINK-3556,1 51877U 22022AB  23247.16457907 -.00000515  00000-0 -14267-4 0  9990,2 51877  53.2182 158.0488 0001585  94.6898 265.4276 15.08838664 84731,6917.884,95.438,540.846,538.653,0.0
51877.0,STARLINK-3556,PAYLOAD,2023-09-05 02:12:23,15.08837858,0.0001474,53.2169,153.8888,76.801,283.3146,2.5196e-05,1.13e-06,0.0,0 STARLINK-3556,1 51877U 22022AB  23248.09194018  .00000113  00000-0  25196-4 0  9999,2 51877  53.2169 153.8888 0001474  76.8010 283.3146 15.08837858 84872,6917.887,95.438,540.772,538.732,0.0
51877.0,STARLINK-3556,PAYLOAD,2023-09-06 02:03:10,15.08843661,0.0001485,53.2181,149.4268,81.1457,278.9703,7.332e-05,8.79e-06,0.0,0 STARLINK-3556,1 51877U 22022AB  23249.08553400  .00000879  00000-0  73320-4 0  9994,2 51877  53.2181 149.4268 0001485  81.1457 278.9703 15.08843661 85021,6917.869,95.437,540.762,538.707,0.0
51877.0,STARLINK-3556,PAYLOAD,2023-09-07 01:53:59,15.0879598,0.0001678,53.219,144.968,88.7538,271.3647,0.0003023,4.521e-05,0.0,0 STARLINK-3556,1 51877U 22022AB  23250.07916129  .00004521  00000-0  30230-3 0  9996,2 51877  53.2190 144.9680 0001678  88.7538 271.3647 15.08795980 85176,6918.015,95.44,541.041,538.719,0.0
51877.0,STARLINK-3556,PAYLOAD,2023-09-08 01:44:46,15.08826512,0.000169,53.2172,140.5062,78.8917,281.2265,-0.00010799,-2.006e-05,0.0,0 STARLINK-3556,1 51877U 22022AB  23251.07276606 -.00002006  00000-0 -10799-3 0  9992,2 51877  53.2172 140.5062 0001690  78.8917 281.2265 15.08826512 85326,6917.922,95.438,540.956,538.617,0.0
51877.0,STARLINK-3556,PAYLOAD,2023-09-08 20:49:22,15.08854055,0.0001623,53.2182,136.9379,82.7365,277.3812,0.00018542,2.665e-05,0.0,0 STARLINK-3556,1 51877U 22022AB  23251.86761953  .00002665  00000-0  18542-3 0  9996,2 51877  53.2182 136.9379 0001623  82.7365 277.3812 15.08854055 85444,6917.837,95.437,540.825,538.58,0.0
51877.0,STARLINK-3556,PAYLOAD,2023-09-09 01:35:31,15.08853864,0.0001428,53.2174,136.0462,85.76,274.3555,0.00034582,5.222e-05,0.0,0 STARLINK-3556,1 51877U 22022AB  23252.06633536  .00005222  00000-0  34582-3 0  9998,2 51877  53.2174 136.0462 0001428  85.7600 274.3555 15.08853864 85478,6917.838,95.437,540.691,538.715,0.0
51877.0,STARLINK-3556,PAYLOAD,2023-09-09 09:32:28,15.08839248,0.0001532,53.2182,134.5584,78.0442,282.0722,0.00025798,3.82e-05,0.0,0 STARLINK-3556,1 51877U 22022AB  23252.39754813  .00003820  00000-0  25798-3 0  9997,2 51877  53.2182 134.5584 0001532  78.0442 282.0722 15.08839248 85528,6917.883,95.438,540.808,538.688,0.0
51877.0,STARLINK-3556,PAYLOAD,2023-09-10 01:26:19,15.08850584,0.0001305,53.2164,131.5845,89.3946,270.7196,6.101e-05,6.83e-06,0.0,0 STARLINK-3556,1 51877U 22022AB  23253.05994627  .00000683  00000-0  61010-4 0  9992,2 51877  53.2164 131.5845 0001305  89.3946 270.7196 15.08850584 85623,6917.848,95.437,540.616,538.81,0.0
51877.0,STARLINK-3556,PAYLOAD,2023-09-11 01:17:05,15.08857799,0.0001116,53.2165,127.1228,89.654,270.458,-8.3517e-05,-1.617e-05,0.0,0 STARLINK-3556,1 51877U 22022AB  23254.05353868 -.00001617  00000-0 -83517-4 0  9995,2 51877  53.2165 127.1228 0001116  89.6540 270.4580 15.08857799 85778,6917.826,95.436,540.463,538.919,0.0
51877.0,STARLINK-3556,PAYLOAD,2023-09-11 09:14:01,15.08857676,0.0001087,53.2163,125.6376,87.881,272.2307,-7.3334e-05,-1.455e-05,0.0,0 STARLINK-3556,1 51877U 22022AB  23254.38473524 -.00001455  00000-0 -73334-4 0  9999,2 51877  53.2163 125.6376 0001087  87.8810 272.2307 15.08857676 85827,6917.826,95.436,540.443,538.939,0.0
51877.0,STARLINK-3556,PAYLOAD,2023-09-12 01:07:52,15.0884641,0.0001491,53.2178,122.6622,100.5177,259.5983,6.0025e-05,6.68e-06,0.0,0 STARLINK-3556,1 51877U 22022AB  23255.04713757  .00000668  00000-0  60025-4 0  9994,2 51877  53.2178 122.6622 0001491 100.5177 259.5983 15.08846410 85925,6917.861,95.437,540.757,538.694,0.0
51877.0,STARLINK-3556,PAYLOAD,2023-09-12 20:12:30,15.08841312,0.00013,53.2178,119.0967,80.6904,279.4235,-4.6542e-06,-3.62e-06,0.0,0 STARLINK-3556,1 51877U 22022AB  23255.84202455 -.00000362  00000-0 -46542-5 0  9992,2 51877  53.2178 119.0967 0001300  80.6904 279.4235 15.08841312 86043,6917.876,95.437,540.641,538.842,0.0
51877.0,STARLINK-3556,PAYLOAD,2023-09-12 21:47:53,15.08842602,0.0001275,53.2178,118.7989,84.7077,275.4061,9.7937e-06,-1.32e-06,0.0,0 STARLINK-3556,1 51877U 22022AB  23255.90826290 -.00000132  00000-0  97937-5 0  9996,2 51877  53.2178 118.7989 0001275  84.7077 275.4061 15.08842602 86057,6917.872,95.437,540.619,538.855,0.0
51877.0,STARLINK-3556,PAYLOAD,2023-09-13 18:27:53,15.08848352,0.0001201,53.2173,114.9323,87.7642,272.3488,0.00011207,1.497e-05,0.0,0 STARLINK-3556,1 51877U 22022AB  23256.76937383  .00001497  00000-0  11207-3 0  9995,2 51877  53.2173 114.9323 0001201  87.7642 272.3488 15.08848352 86183,6917.855,95.437,540.551,538.889,0.0
51877.0,STARLINK-3556,PAYLOAD,2023-09-13 21:38:39,15.08855248,0.0001262,53.2177,114.3391,84.0543,276.0593,0.00013745,1.901e-05,0.0,0 STARLINK-3556,1 51877U 22022AB  23256.90184834  .00001901  00000-0  13745-3 0  9995,2 51877  53.2177 114.3391 0001262  84.0543 276.0593 15.08855248 86206,6917.834,95.437,540.572,538.826,0.0
51877.0,STARLINK-3556,PAYLOAD,2023-09-14 00:49:25,15.08857292,0.0001225,53.2174,113.7439,85.805,274.3082,0.00015679,2.209e-05,0.0,0 STARLINK-3556,1 51877U 22022AB  23257.03432605  .00002209  00000-0  15679-3 0  9992,2 51877  53.2174 113.7439 0001225  85.8050 274.3082 15.08857292 86227,6917.828,95.436,540.54,538.845,0.0
51877.0,STARLINK-3556,PAYLOAD,2023-09-14 18:18:43,15.08824282,0.0001458,53.217,110.4697,95.1137,265.0021,-7.0384e-05,-1.407e-05,0.0,0 STARLINK-3556,1 51877U 22022AB  23257.76299884 -.00001407  00000-0 -70384-4 0  9998,2 51877  53.2170 110.4697 0001458  95.1137 265.0021 15.08824282 86336,6917.928,95.439,540.802,538.785,0.0
51877.0,STARLINK-3556,PAYLOAD,2023-09-14 21:29:29,15.08822454,0.0001412,53.2179,109.8798,90.7654,269.35,-7.7639e-05,-1.523e-05,0.0,0 STARLINK-3556,1 51877U 22022AB  23257.89548166 -.00001523  00000-0 -77639-4 0  9991,2 51877  53.2179 109.8798 0001412  90.7654 269.3500 15.08822454 86354,6917.934,95.439,540.776,538.822,0.0
51877.0,STARLINK-3556,PAYLOAD,2023-09-15 13:23:20,15.08837018,0.0001322,53.2173,106.9031,82.891,277.2232,-9.3419e-05,-1.774e-05,0.0,0 STARLINK-3556,1 51877U 22022AB  23258.55787836 -.00001774  00000-0 -93419-4 0  9996,2 51877  53.2173 106.9031 0001322  82.8910 277.2232 15.08837018 86456,6917.89,95.438,540.669,538.84,0.0
51877.0,STARLINK-3556,PAYLOAD,2023-09-15 18:09:29,15.08842172,0.0001413,53.218,106.0127,88.9624,271.153,-2.3817e-05,-6.67e-06,0.0,0 STARLINK-3556,1 51877U 22022AB  23258.75659331 -.00000667  00000-0 -23817-4 0  9991,2 51877  53.2180 106.0127 0001413  88.9624 271.1530 15.08842172 86485,6917.874,95.437,540.716,538.761,0.0
51877.0,STARLINK-3556,PAYLOAD,2023-09-15 22:55:38,15.08843088,0.0001479,53.2165,105.1201,92.4594,267.6567,9.8907e-05,1.287e-05,0.0,0 STARLINK-3556,1 51877U 22022AB  23258.95531033  .00001287  00000-0  98907-4 0  9990,2 51877  53.2165 105.1201 0001479  92.4594 267.6567 15.08843088 86510,6917.871,95.437,540.759,538.713,0.0
51877.0,STARLINK-3556,PAYLOAD,2023-09-17 00:21:48,15.08859487,0.0001472,53.2157,100.3624,90.1128,270.0033,0.00062577,9.69e-05,0.0,0 STARLINK-3556,1 51877U 22022AB  23260.01515034  .00009690  00000-0  62577-3 0  9992,2 51877  53.2157 100.3624 0001472  90.1128 270.0033 15.08859487 86671,6917.821,95.436,540.704,538.668,0.0
51877.0,STARLINK-3556,PAYLOAD,2023-09-17 17:51:03,15.08854048,0.0001554,53.2161,97.0902,90.5739,269.5431,0.00032886,4.952e-05,0.0,0 STARLINK-3556,1 51877U 22022AB  23260.74378774  .00004952  00000-0  32886-3 0  9996,2 51877  53.2161  97.0902 0001554  90.5739 269.5431 15.08854048 86785,6917.837,95.437,540.777,538.627,0.0
51877.0,STARLINK-3556,PAYLOAD,2023-09-17 22:37:12,15.08853803,0.0001512,53.2167,96.1978,93.4258,266.6907,0.00023414,3.442e-05,0.0,0 STARLINK-3556,1 51877U 22022AB  23260.94250667  .00003442  00000-0  23414-3 0  9998,2 51877  53.2167  96.1978 0001512  93.4258 266.6907 15.08853803 86814,6917.838,95.437,540.749,538.657,0.0
51877.0,STARLINK-3556,PAYLOAD,2023-09-18 17:41:50,15.08847338,0.0001762,53.2169,92.6272,98.2591,261.8601,9.4576e-05,1.218e-05,0.0,0 STARLINK-3556,1 51877U 22022AB  23261.73738649  .00001218  00000-0  94576-4 0  9994,2 51877  53.2169  92.6272 0001762  98.2591 261.8601 15.08847338 86931,6917.858,95.437,540.942,538.504,0.0
51877.0,STARLINK-3556,PAYLOAD,2023-09-18 19:17:13,15.08848455,0.0001618,53.2182,92.3286,100.7056,259.4118,0.0001427,1.984e-05,0.0,0 STARLINK-3556,1 51877U 22022AB  23261.80362537  .00001984  00000-0  14270-3 0  9993,2 51877  53.2182  92.3286 0001618 100.7056 259.4118 15.08848455 86941,6917.855,95.437,540.839,538.6,0.0
51877.0,STARLINK-3556,PAYLOAD,2023-09-19 19:08:00,15.08829145,0.0001372,53.2181,87.8692,100.3412,259.7735,-0.00014726,-2.63e-05,0.0,0 STARLINK-3556,1 51877U 22022AB  23262.79722956 -.00002630  00000-0 -14726-3 0  9994,2 51877  53.2181  87.8692 0001372 100.3412 259.7735 15.08829145 87099,6917.914,95.438,540.728,538.829,0.0
